HULIANWANG DIGUI-144    
1 67442U 26007H   26036.72282660  .00000001  00000+0  14235-3 0  9996
2 67442  50.0076 202.8925 0000798 317.2030  42.8801 13.77538540  3213
HULIANWANG DIGUI-145    
1 67443U 26007J   26036.86443486  .00000023  00000+0  16495-3 0  9991
2 67443  50.0053 202.3026 0000384 119.6896 240.4035 13.77425655  3230
CZ-8A R/B               
1 67444U 26007K   26036.94725964 -.00000083  00000+0  36590-4 0  9991
2 67444  50.0084 198.0383 0092208 162.9744 197.4292 14.13551492  3293
STARLINK-36542          
1 67445U 26008A   26037.16668981 -.02079890  00000+0 -33113-1 0  9993
2 67445  43.0000  25.1937 0000802 272.4657 277.8879 15.55655926  4725
STARLINK-36539          
1 67446U 26008B   26037.16668981 -.02122533  00000+0 -31499-1 0  9992
2 67446  42.9999  25.1196 0000882 270.9981 309.4468 15.57588399  4737
STARLINK-36440          
1 67447U 26008C   26035.39396356 -.00618888  00000+0 -44540-2 0  9993
2 67447  42.9995  35.5635 0000730 302.0276  58.0522 15.74395349  4450
STARLINK-36423          
1 67448U 26008D   26037.16668981 -.01995739  00000+0 -34948-1 0  9991
2 67448  43.0005  25.2894 0001063 271.7503 239.6881 15.52943255  4730
STARLINK-36519          
1 67449U 26008E   26037.16668981 -.02089244  00000+0 -25391-1 0  9990
2 67449  42.9995  24.9409 0001156 262.8113  29.5727 15.63241643  4735
STARLINK-36525          
1 67450U 26008F   26037.16668981 -.02075778  00000+0 -33300-1 0  9998
2 67450  43.0001  25.1769 0000747 268.8848 287.8156 15.55446295  4731
STARLINK-36511          
1 67451U 26008G   26037.16668981 -.01833642  00000+0 -32169-1 0  9992
2 67451  43.0000  25.2639 0001158 277.5640 244.2432 15.53154592  4730
STARLINK-36524          
1 67452U 26008H   26037.16668981 -.02044167  00000+0 -31784-1 0  9992
2 67452  42.9999  25.1364 0000813 276.3662 296.6057 15.56231413  4733
STARLINK-36518          
1 67453U 26008J   26037.16668981 -.02135002  00000+0 -30005-1 0  9997
2 67453  43.0000  24.6727 0001125 280.6429 115.2151 15.59031814  4751
